HIROGARI (OPUSAT-II)    
1 47930U 98067SG  21122.75333972  .00012594  00000-0  22088-3 0  9994
2 47930  51.6421 206.9794 0001510 235.1268 124.9580 15.50939788  7680
GUARANISAT-1            
1 47931U 98067SH  21122.94784890  .00008436  00000-0  15175-3 0  9994
2 47931  51.6423 206.0287 0001699 229.7325 130.3516 15.50722104  7718
SMOG-1                  
1 47964U 21022AJ  21122.94985734  .00000864  00000-0  61658-4 0  9992
2 47964  97.5617  26.0872 0021379  98.4364 261.9292 15.06953380  5026
MMSATS-1                
1 47976U 98067SJ  21122.71970249  .00003236  00000-0  65701-4 0  9997
2 47976  51.6458 207.4910 0001923 285.3108  74.7667 15.49518166  6457
